NORAD_CAT_ID,OBJECT_NAME,OBJECT_TYPE,EPOCH,MEAN_MOTION,ECCENTRICITY,INCLINATION,RA_OF_ASC_NODE,ARG_OF_PERICENTER,MEAN_ANOMALY,BSTAR,MEAN_MOTION_DOT,MEAN_MOTION_DDOT,TLE_LINE0,TLE_LINE1,TLE_LINE2,SEMIMAJOR_AXIS,PERIOD,APOGEE,PERIGEE,DECAYED
50829.0,STARLINK-3294,PAYLOAD,2024-08-13 17:20:16,15.08850521,0.0001512,53.215,221.2675,98.2384,261.8779,0.00037248,5.647e-05,0.0,0 STARLINK-3294,1 50829U 22001AC  24226.72241884  .00005647  00000-0  37248-3 0  9990,2 50829  53.2150 221.2675 0001512  98.2384 261.8779 15.08850521143902,6917.848,95.437,540.759,538.667,0.0
50829.0,STARLINK-3294,PAYLOAD,2024-08-14 04:27:59,15.08834031,0.000145,53.214,219.1859,113.7616,246.3528,0.00026812,3.981e-05,0.0,0 STARLINK-3294,1 50829U 22001AC  24227.18610334  .00003981  00000-0  26812-3 0  9995,2 50829  53.2140 219.1859 0001450 113.7616 246.3528 15.08834031145240,6917.899,95.438,540.767,538.761,0.0
50829.0,STARLINK-3294,PAYLOAD,2024-08-14 09:14:09,15.08829046,0.0001371,53.2152,218.297,96.8703,263.2445,0.00022409,3.279e-05,0.0,0 STARLINK-3294,1 50829U 22001AC  24227.38482772  .00003279  00000-0  22409-3 0  9998,2 50829  53.2152 218.2970 0001371  96.8703 263.2445 15.08829046144006,6917.914,95.438,540.727,538.83,0.0
50829.0,STARLINK-3294,PAYLOAD,2024-08-15 05:54:10,15.08843112,0.000122,53.2145,214.4317,91.0613,269.0519,0.00077148,0.00012013,0.0,0 STARLINK-3294,1 50829U 22001AC  24228.24595210  .00012013  00000-0  77148-3 0  9992,2 50829  53.2145 214.4317 0001220  91.0613 269.0519 15.08843112145402,6917.871,95.437,540.58,538.892,0.0
50829.0,STARLINK-3294,PAYLOAD,2024-08-16 05:44:57,15.08848064,0.0001232,53.2146,209.9719,91.2847,268.8286,0.00038303,5.815e-05,0.0,0 STARLINK-3294,1 50829U 22001AC  24229.23955046  .00005815  00000-0  38303-3 0  9991,2 50829  53.2146 209.9719 0001232  91.2847 268.8286 15.08848064145557,6917.856,95.437,540.573,538.868,0.0
50829.0,STARLINK-3294,PAYLOAD,2024-08-17 04:00:21,15.08838658,0.000123,53.2148,205.8098,92.665,267.4483,2.9644e-05,1.84e-06,0.0,0 STARLINK-3294,1 50829U 22001AC  24230.16691305  .00000184  00000-0  29644-4 0  9993,2 50829  53.2148 205.8098 0001230  92.6650 267.4483 15.08838658145696,6917.884,95.438,540.6,538.899,0.0
50829.0,STARLINK-3294,PAYLOAD,2024-08-17 07:11:07,15.08838347,0.0001231,53.2147,205.2151,92.1647,267.9486,1.7836e-05,-4e-08,0.0,0 STARLINK-3294,1 50829U 22001AC  24230.29939312 -.00000004  00000-0  17836-4 0  9992,2 50829  53.2147 205.2151 0001231  92.1647 267.9486 15.08838347144446,6917.885,95.438,540.602,538.899,0.0
50829.0,STARLINK-3294,PAYLOAD,2024-08-18 05:26:31,15.08841118,0.0001303,53.215,201.0526,94.0212,266.0929,9.5637e-05,1.235e-05,0.0,0 STARLINK-3294,1 50829U 22001AC  24231.22675263  .00001235  00000-0  95637-4 0  9999,2 50829  53.2150 201.0526 0001303  94.0212 266.0929 15.08841118144586,6917.877,95.437,540.643,538.841,0.0
50829.0,STARLINK-3294,PAYLOAD,2024-08-18 07:01:54,15.08842496,0.0001353,53.2152,200.7562,97.8273,262.2873,0.00011462,1.537e-05,0.0,0 STARLINK-3294,1 50829U 22001AC  24231.29299193  .00001537  00000-0  11462-3 0  9998,2 50829  53.2152 200.7562 0001353  97.8273 262.2873 15.08842496145865,6917.873,95.437,540.674,538.802,0.0
50829.0,STARLINK-3294,PAYLOAD,2024-08-19 05:17:18,15.08837394,0.0001396,53.2157,196.5874,93.192,266.9232,6.0721e-05,6.79e-06,0.0,0 STARLINK-3294,1 50829U 22001AC  24232.22035514  .00000679  00000-0  60721-4 0  9996,2 50829  53.2157 196.5874 0001396  93.1920 266.9232 15.08837394146001,6917.888,95.438,540.719,538.788,0.0
50829.0,STARLINK-3294,PAYLOAD,2024-08-19 06:52:42,15.08837379,0.0001377,53.2166,196.2901,93.1402,266.9747,9.3077e-05,1.194e-05,0.0,0 STARLINK-3294,1 50829U 22001AC  24232.28659734  .00001194  00000-0  93077-4 0  9991,2 50829  53.2166 196.2901 0001377  93.1402 266.9747 15.08837379144746,6917.888,95.438,540.706,538.801,0.0
50829.0,STARLINK-3294,PAYLOAD,2024-08-20 05:08:05,15.08844057,0.0001373,53.2164,192.1286,96.5358,263.579,7.5019e-05,9.06e-06,0.0,0 STARLINK-3294,1 50829U 22001AC  24233.21395428  .00000906  00000-0  75019-4 0  9998,2 50829  53.2164 192.1286 0001373  96.5358 263.5790 15.08844057144885,6917.868,95.437,540.683,538.783,0.0
50829.0,STARLINK-3294,PAYLOAD,2024-08-21 03:23:29,15.08843972,0.000135,53.2164,187.9656,95.7545,264.3601,0.00011265,1.506e-05,0.0,0 STARLINK-3294,1 50829U 22001AC  24234.14131265  .00001506  00000-0  11265-3 0  9997,2 50829  53.2164 187.9656 0001350  95.7545 264.3601 15.08843972146294,6917.868,95.437,540.667,538.799,0.0
50829.0,STARLINK-3294,PAYLOAD,2024-08-21 20:52:44,15.08844044,0.0001361,53.2165,184.6966,90.4251,269.6897,5.3103e-05,5.57e-06,0.0,0 STARLINK-3294,1 50829U 22001AC  24234.86995448  .00000557  00000-0  53103-4 0  9990,2 50829  53.2165 184.6966 0001361  90.4251 269.6897 15.08844044145139,6917.868,95.437,540.675,538.792,0.0
